     3.04           N: GNSS NAV DATA    M: MIXED            RINEX VERSION / TYPE
ssrcrin-15.6.1x                         20250101 234500 UTC PGM / RUN BY / DATE 
    18                                                      LEAP SECONDS        
                                                            END OF HEADER       
E33 2025 01 01 23 40 00 1.643784344196E-05 7.105427357601E-14 0.000000000000E+00
     6.600000000000E+01 1.658437500000E+02 2.656539226950E-09-2.983764838376E+00
     7.838010787964E-06 3.427990013734E-04 2.119690179825E-06 5.440617086411E+03
     3.444000000000E+05-4.097819328308E-08-1.776125719634E+00 1.005828380585E-07
     9.997075091676E-01 3.127812500000E+02-1.711223315160E+00-5.619162632107E-09
     3.032269163325E-10 2.580000000000E+02 2.347000000000E+03
     3.120000000000E+00 0.000000000000E+00-6.286427378654E-09 0.000000000000E+00
     3.451400000000E+05
E26 2025 01 01 23 40 00-1.661222777329E-04 1.092814727599E-11 0.000000000000E+00
     6.600000000000E+01 1.824375000000E+02 2.744757187297E-09-2.466930153200E+00
     8.519738912582E-06 3.918336005881E-04 2.564862370491E-06 5.440606298447E+03
     3.444000000000E+05-5.960464477539E-08-1.777046832836E+00 0.000000000000E+00
     9.930122231964E-01 2.992500000000E+02-1.479097264189E+00-5.590947171105E-09
     2.932264997750E-10 2.580000000000E+02 2.347000000000E+03
     3.120000000000E+00 0.000000000000E+00-6.752088665962E-09 0.000000000000E+00
     3.451400000000E+05
E07 2025 01 01 23 40 00-1.613572821952E-04-1.989519660128E-12 0.000000000000E+00
     6.600000000000E+01-1.712187500000E+02 2.644753021722E-09 1.378325148546E+00
    -7.882714271545E-06 1.247153850272E-04 1.091510057449E-05 5.440616554260E+03
     3.444000000000E+05-9.685754776001E-08 3.130777785919E-01-5.401670932770E-08
     9.636406610101E-01 1.109687500000E+02-3.239354527090E-01-5.183073038654E-09
     1.357199389945E-10 2.580000000000E+02 2.347000000000E+03
     3.120000000000E+00 0.000000000000E+00 3.725290298462E-09 0.000000000000E+00
     3.451400000000E+05
E31 2025 01 01 23 40 00-4.890601849183E-05-1.463718035666E-12 0.000000000000E+00
     6.600000000000E+01-2.546875000000E+01 3.479787804272E-09 2.676628893206E+00
    -1.130625605583E-06 1.729413634166E-04 5.919486284256E-06 5.440605243683E+03
     3.444000000000E+05-7.264316082001E-08 2.413326305390E+00 2.048909664154E-08
     9.641917612685E-01 2.165312500000E+02 1.954544588113E-01-5.604162007271E-09
    -4.596620039104E-10 2.580000000000E+02 2.347000000000E+03
     3.120000000000E+00 0.000000000000E+00 2.095475792885E-09 0.000000000000E+00
     3.451400000000E+05
E16 2025 01 01 23 40 00-1.289282226935E-05-1.989519660128E-12 0.000000000000E+00
     6.600000000000E+01-1.931250000000E+01 3.423356882269E-09-5.611041925390E-01
    -9.387731552124E-07 2.428655279800E-04 6.036832928658E-06 5.440606632233E+03
     3.444000000000E+05 1.862645149231E-08 2.409274765473E+00 1.676380634308E-08
     9.661194323294E-01 2.101562500000E+02 2.250439617055E+00-5.536659195508E-09
    -4.271606500985E-10 2.580000000000E+02 2.347000000000E+03
     3.120000000000E+00 4.800000000000E+01-4.190951585770E-09 0.000000000000E+00
     3.451400000000E+05
S23 2025 01 01 23 53 20 0.000000000000E+00 0.000000000000E+00 3.452010000000E+05
     3.866796400000E+04 0.000000000000E+00 0.000000000000E+00 6.300000000000E+01
     1.681330800000E+04 0.000000000000E+00 0.000000000000E+00 3.276700000000E+04
     0.000000000000E+00 0.000000000000E+00 0.000000000000E+00 1.580000000000E+02
S36 2025 01 01 23 54 24 0.000000000000E+00 0.000000000000E+00 3.452780000000E+05
     4.200368800000E+04 0.000000000000E+00 0.000000000000E+00 6.300000000000E+01
     3.674846960000E+03 0.000000000000E+00 0.000000000000E+00 3.276700000000E+04
     0.000000000000E+00 0.000000000000E+00 0.000000000000E+00 2.060000000000E+02
S23 2025 01 01 23 55 12 0.000000000000E+00 0.000000000000E+00 3.453230000000E+05
     3.866796400000E+04 0.000000000000E+00 0.000000000000E+00 6.300000000000E+01
     1.681330800000E+04 0.000000000000E+00 0.000000000000E+00 3.276700000000E+04
     0.000000000000E+00 0.000000000000E+00 0.000000000000E+00 1.590000000000E+02
G19 2025 01 02 00 00 00 5.811327137053E-04 4.661160346586E-12 0.000000000000E+00
     8.000000000000E+01 8.606250000000E+01 4.202675058285E-09-1.507465862907E+00
     4.399567842484E-06 1.001763448585E-02 1.150928437710E-05 5.153606389999E+03
     3.456000000000E+05-5.960464477539E-08-2.806382836493E+00-2.179294824600E-07
     9.652205979065E-01 1.625000000000E+02 2.700232290828E+00-7.776038188917E-09
    -2.360812623036E-10 1.000000000000E+00 2.347000000000E+03 0.000000000000E+00
     2.000000000000E+00 0.000000000000E+00-1.536682248116E-08 8.000000000000E+01
     3.453720000000E+05 4.000000000000E+00
S36 2025 01 01 23 57 04 0.000000000000E+00 0.000000000000E+00 3.454340000000E+05
     4.200368800000E+04 0.000000000000E+00 0.000000000000E+00 6.300000000000E+01
     3.674846960000E+03 0.000000000000E+00 0.000000000000E+00 3.276700000000E+04
     0.000000000000E+00 0.000000000000E+00 0.000000000000E+00 2.070000000000E+02
S23 2025 01 01 23 57 20 0.000000000000E+00 0.000000000000E+00 3.454450000000E+05
     3.866796400000E+04 0.000000000000E+00 0.000000000000E+00 6.300000000000E+01
     1.681330800000E+04 0.000000000000E+00 0.000000000000E+00 3.276700000000E+04
     0.000000000000E+00 0.000000000000E+00 0.000000000000E+00 1.600000000000E+02
S23 2025 01 01 23 59 28 0.000000000000E+00 0.000000000000E+00 3.455700000000E+05
     3.866796400000E+04 0.000000000000E+00 0.000000000000E+00 6.300000000000E+01
     1.681330800000E+04 0.000000000000E+00 0.000000000000E+00 3.276700000000E+04
     0.000000000000E+00 0.000000000000E+00 0.000000000000E+00 1.610000000000E+02
S36 2025 01 01 23 59 44 0.000000000000E+00 0.000000000000E+00 3.455860000000E+05
     4.200368800000E+04 0.000000000000E+00 0.000000000000E+00 6.300000000000E+01
     3.674846960000E+03 0.000000000000E+00 0.000000000000E+00 3.276700000000E+04
     0.000000000000E+00 0.000000000000E+00 0.000000000000E+00 2.080000000000E+02
